{
  "type": "FeatureCollection",
  "features": [
    {
      "type": "Feature",
      "properties": {
        "norad_id": 33886,
        "name": "IRIDIUM 33 DEB",
        "group": "iridium-33-debris",
        "lat": 5.525254100156001,
        "lon": 62.86235111327079,
        "alt_km": 782.9393764402694,
        "timestamp": "2025-12-23T22:42:33.370436+00:00",
        "meta_object_name": "IRIDIUM 33 DEB",
        "meta_object_id": "1997-051BF",
        "meta_epoch": "2025-12-23T04:32:11.836032",
        "meta_mean_motion": 14.36063492,
        "meta_eccentricity": 0.00132665,
        "meta_inclination": 86.3821,
        "meta_ra_of_asc_node": 62.8304,
        "meta_arg_of_pericenter": 204.4595,
        "meta_mean_anomaly": 209.0672,
        "meta_ephemeris_type": 0,
        "meta_classification_type": "U",
        "meta_norad_cat_id": 33886,
        "meta_element_set_no": 999,
        "meta_rev_at_epoch": 88202,
        "meta_bstar": 0.00017557026,
        "meta_mean_motion_dot": 5.3e-06,
        "meta_mean_motion_ddot": 0,
        "tle_line1": "1 33886U 97051BF  25357.18902588  .00000530  00000+0  17557-3 0  9998",
        "tle_line2": "2 33886  86.3821  62.8304 0013266 204.4595 209.0672 14.36063492882022"
      },
      "geometry": {
        "type": "Point",
        "coordinates": [
          62.86235111327079,
          5.525254100156001
        ]
      }
    },
    {
      "type": "Feature",
      "properties": {
        "norad_id": 33887,
        "name": "IRIDIUM 33 DEB",
        "group": "iridium-33-debris",
        "lat": -11.151746861736044,
        "lon": -2.1673882590274136,
        "alt_km": 775.887155087039,
        "timestamp": "2025-12-23T22:42:33.370446+00:00",
        "meta_object_name": "IRIDIUM 33 DEB",
        "meta_object_id": "1997-051BG",
        "meta_epoch": "2025-12-23T01:18:50.417280",
        "meta_mean_motion": 14.37229907,
        "meta_eccentricity": 0.00055483,
        "meta_inclination": 86.3042,
        "meta_ra_of_asc_node": 358.9467,
        "meta_arg_of_pericenter": 186.4101,
        "meta_mean_anomaly": 232.9503,
        "meta_ephemeris_type": 0,
        "meta_classification_type": "U",
        "meta_norad_cat_id": 33887,
        "meta_element_set_no": 999,
        "meta_rev_at_epoch": 88313,
        "meta_bstar": 0.00013990077,
        "meta_mean_motion_dot": 4.36e-06,
        "meta_mean_motion_ddot": 0,
        "tle_line1": "1 33887U 97051BG  25357.05475020  .00000436  00000+0  13990-3 0  9993",
        "tle_line2": "2 33887  86.3042 358.9467 0005548 186.4101 232.9503 14.37229907883130"
      },
      "geometry": {
        "type": "Point",
        "coordinates": [
          -2.1673882590274136,
          -11.151746861736044
        ]
      }
    },
    {
      "type": "Feature",
      "properties": {
        "norad_id": 33953,
        "name": "IRIDIUM 33 DEB",
        "group": "iridium-33-debris",
        "lat": -35.71024134957636,
        "lon": -128.4789819279866,
        "alt_km": 725.0479769753347,
        "timestamp": "2025-12-23T22:42:33.370456+00:00",
        "meta_object_name": "IRIDIUM 33 DEB",
        "meta_object_id": "1997-051BN",
        "meta_epoch": "2025-12-22T04:44:25.619136",
        "meta_mean_motion": 14.55406947,
        "meta_eccentricity": 0.00178347,
        "meta_inclination": 86.3836,
        "meta_ra_of_asc_node": 49.6744,
        "meta_arg_of_pericenter": 73.9809,
        "meta_mean_anomaly": 345.1929,
        "meta_ephemeris_type": 0,
        "meta_classification_type": "U",
        "meta_norad_cat_id": 33953,
        "meta_element_set_no": 999,
        "meta_rev_at_epoch": 88441,
        "meta_bstar": 0.0010994661,
        "meta_mean_motion_dot": 4.805e-05,
        "meta_mean_motion_ddot": 0,
        "tle_line1": "1 33953U 97051BN  25356.19751874  .00004805  00000+0  10995-2 0  9990",
        "tle_line2": "2 33953  86.3836  49.6744 0017834  73.9809 345.1929 14.55406947884415"
      },
      "geometry": {
        "type": "Point",
        "coordinates": [
          -128.4789819279866,
          -35.71024134957636
        ]
      }
    },
    {
      "type": "Feature",
      "properties": {
        "norad_id": 33960,
        "name": "IRIDIUM 33 DEB",
        "group": "iridium-33-debris",
        "lat": 27.82326575986232,
        "lon": 102.24795045610954,
        "alt_km": 612.0890527593774,
        "timestamp": "2025-12-23T22:42:33.370467+00:00",
        "meta_object_name": "IRIDIUM 33 DEB",
        "meta_object_id": "1997-051BV",
        "meta_epoch": "2025-12-22T20:25:56.627904",
        "meta_mean_motion": 14.85668232,
        "meta_eccentricity": 0.00072159,
        "meta_inclination": 86.2544,
        "meta_ra_of_asc_node": 284.7457,
        "meta_arg_of_pericenter": 44.6643,
        "meta_mean_anomaly": 15.2245,
        "meta_ephemeris_type": 0,
        "meta_classification_type": "U",
        "meta_norad_cat_id": 33960,
        "meta_element_set_no": 999,
        "meta_rev_at_epoch": 89017,
        "meta_bstar": 0.0029026593,
        "meta_mean_motion_dot": 0.00025254,
        "meta_mean_motion_ddot": 0,
        "tle_line1": "1 33960U 97051BV  25356.85134986  .00025254  00000+0  29027-2 0  9997",
        "tle_line2": "2 33960  86.2544 284.7457 0007215  44.6643  15.2245 14.85668232890170"
      },
      "geometry": {
        "type": "Point",
        "coordinates": [
          102.24795045610954,
          27.82326575986232
        ]
      }
    },
    {
      "type": "Feature",
      "properties": {
        "norad_id": 33966,
        "name": "IRIDIUM 33 DEB",
        "group": "iridium-33-debris",
        "lat": 70.16407279630832,
        "lon": -148.8589053793663,
        "alt_km": 715.722089525596,
        "timestamp": "2025-12-23T22:42:33.370477+00:00",
        "meta_object_name": "IRIDIUM 33 DEB",
        "meta_object_id": "1997-051CB",
        "meta_epoch": "2025-12-23T04:16:14.623392",
        "meta_mean_motion": 14.49632542,
        "meta_eccentricity": 0.00085683,
        "meta_inclination": 86.391,
        "meta_ra_of_asc_node": 41.5472,
        "meta_arg_of_pericenter": 155.6053,
        "meta_mean_anomaly": 267.1436,
        "meta_ephemeris_type": 0,
        "meta_classification_type": "U",
        "meta_norad_cat_id": 33966,
        "meta_element_set_no": 999,
        "meta_rev_at_epoch": 88593,
        "meta_bstar": 0.0004536532,
        "meta_mean_motion_dot": 1.763e-05,
        "meta_mean_motion_ddot": 0,
        "tle_line1": "1 33966U 97051CB  25357.17794703  .00001763  00000+0  45365-3 0  9991",
        "tle_line2": "2 33966  86.3910  41.5472 0008568 155.6053 267.1436 14.49632542885933"
      },
      "geometry": {
        "type": "Point",
        "coordinates": [
          -148.8589053793663,
          70.16407279630832
        ]
      }
    },
    {
      "type": "Feature",
      "properties": {
        "norad_id": 34071,
        "name": "IRIDIUM 33 DEB",
        "group": "iridium-33-debris",
        "lat": 8.90931235257459,
        "lon": -167.61719539642388,
        "alt_km": 729.5843991452994,
        "timestamp": "2025-12-23T22:42:33.370488+00:00",
        "meta_object_name": "IRIDIUM 33 DEB",
        "meta_object_id": "1997-051CE",
        "meta_epoch": "2025-12-23T00:23:08.786688",
        "meta_mean_motion": 14.49508043,
        "meta_eccentricity": 0.00098999,
        "meta_inclination": 86.3448,
        "meta_ra_of_asc_node": 13.3612,
        "meta_arg_of_pericenter": 79.9113,
        "meta_mean_anomaly": 280.3208,
        "meta_ephemeris_type": 0,
        "meta_classification_type": "U",
        "meta_norad_cat_id": 34071,
        "meta_element_set_no": 999,
        "meta_rev_at_epoch": 88483,
        "meta_bstar": 0.00055260456,
        "meta_mean_motion_dot": 2.138e-05,
        "meta_mean_motion_ddot": 0,
        "tle_line1": "1 34071U 97051CE  25357.01607392  .00002138  00000+0  55260-3 0  9991",
        "tle_line2": "2 34071  86.3448  13.3612 0009899  79.9113 280.3208 14.49508043884833"
      },
      "geometry": {
        "type": "Point",
        "coordinates": [
          -167.61719539642388,
          8.90931235257459
        ]
      }
    },
    {
      "type": "Feature",
      "properties": {
        "norad_id": 34077,
        "name": "IRIDIUM 33 DEB",
        "group": "iridium-33-debris",
        "lat": -84.74476498484822,
        "lon": 3.1503035014088554,
        "alt_km": 684.5155502856433,
        "timestamp": "2025-12-23T22:42:33.370498+00:00",
        "meta_object_name": "IRIDIUM 33 DEB",
        "meta_object_id": "1997-051CL",
        "meta_epoch": "2025-12-22T09:27:37.329984",
        "meta_mean_motion": 14.64940807,
        "meta_eccentricity": 0.00090827,
        "meta_inclination": 86.3849,
        "meta_ra_of_asc_node": 47.2542,
        "meta_arg_of_pericenter": 8.0354,
        "meta_mean_anomaly": 6.0314,
        "meta_ephemeris_type": 0,
        "meta_classification_type": "U",
        "meta_norad_cat_id": 34077,
        "meta_element_set_no": 999,
        "meta_rev_at_epoch": 88474,
        "meta_bstar": 0.00142765,
        "meta_mean_motion_dot": 7.665e-05,
        "meta_mean_motion_ddot": 0,
        "tle_line1": "1 34077U 97051CL  25356.39418206  .00007665  00000+0  14276-2 0  9992",
        "tle_line2": "2 34077  86.3849  47.2542 0009082   8.0354   6.0314 14.64940807884742"
      },
      "geometry": {
        "type": "Point",
        "coordinates": [
          3.1503035014088554,
          -84.74476498484822
        ]
      }
    }
  ]
}